{
  "type": "FeatureCollection",
  "features": [
    {
      "type": "Feature",
      "properties": {
        "norad_id": 34761,
        "name": "COSMOS 2251 DEB",
        "group": "cosmos-2251-debris",
        "lat": -67.05486641627014,
        "lon": -130.479572430457,
        "alt_km": 793.9645853793818,
        "timestamp": "2025-12-10T11:33:53.779154+00:00",
        "meta_object_name": "COSMOS 2251 DEB",
        "meta_object_id": "1993-036AAF",
        "meta_epoch": "2025-12-09T19:21:52.488864",
        "meta_mean_motion": 14.38033811,
        "meta_eccentricity": 0.0036281,
        "meta_inclination": 74.0294,
        "meta_ra_of_asc_node": 8.1962,
        "meta_arg_of_pericenter": 43.2108,
        "meta_mean_anomaly": 317.1882,
        "meta_ephemeris_type": 0,
        "meta_classification_type": "U",
        "meta_norad_cat_id": 34761,
        "meta_element_set_no": 999,
        "meta_rev_at_epoch": 87607,
        "meta_bstar": 0.00094718,
        "meta_mean_motion_dot": 2.864e-05,
        "meta_mean_motion_ddot": 0,
        "tle_line1": "1 34761U 93036AAF 25343.80685751  .00002864  00000+0  94718-3 0  9990",
        "tle_line2": "2 34761  74.0294   8.1962 0036281  43.2108 317.1882 14.38033811876073"
      },
      "geometry": {
        "type": "Point",
        "coordinates": [
          -130.479572430457,
          -67.05486641627014
        ]
      }
    },
    {
      "type": "Feature",
      "properties": {
        "norad_id": 34784,
        "name": "COSMOS 2251 DEB",
        "group": "cosmos-2251-debris",
        "lat": -56.310164257786106,
        "lon": -56.80112345718773,
        "alt_km": 730.5785494048432,
        "timestamp": "2025-12-10T11:33:53.779163+00:00",
        "meta_object_name": "COSMOS 2251 DEB",
        "meta_object_id": "1993-036AAM",
        "meta_epoch": "2025-12-09T09:32:34.369728",
        "meta_mean_motion": 14.60755822,
        "meta_eccentricity": 0.00495196,
        "meta_inclination": 74.0076,
        "meta_ra_of_asc_node": 330.7528,
        "meta_arg_of_pericenter": 141.0713,
        "meta_mean_anomaly": 219.4036,
        "meta_ephemeris_type": 0,
        "meta_classification_type": "U",
        "meta_norad_cat_id": 34784,
        "meta_element_set_no": 999,
        "meta_rev_at_epoch": 88486,
        "meta_bstar": 0.00077015634,
        "meta_mean_motion_dot": 3.794e-05,
        "meta_mean_motion_ddot": 0,
        "tle_line1": "1 34784U 93036AAM 25343.39762002  .00003794  00000+0  77016-3 0  9999",
        "tle_line2": "2 34784  74.0076 330.7528 0049519 141.0713 219.4036 14.60755822884864"
      },
      "geometry": {
        "type": "Point",
        "coordinates": [
          -56.80112345718773,
          -56.310164257786106
        ]
      }
    },
    {
      "type": "Feature",
      "properties": {
        "norad_id": 34790,
        "name": "COSMOS 2251 DEB",
        "group": "cosmos-2251-debris",
        "lat": 0.40898687101807435,
        "lon": -112.11071882606483,
        "alt_km": 766.0205620316783,
        "timestamp": "2025-12-10T11:33:53.779173+00:00",
        "meta_object_name": "COSMOS 2251 DEB",
        "meta_object_id": "1993-036AAT",
        "meta_epoch": "2025-12-09T04:18:49.662144",
        "meta_mean_motion": 14.24610447,
        "meta_eccentricity": 0.01007438,
        "meta_inclination": 74.0552,
        "meta_ra_of_asc_node": 250.1156,
        "meta_arg_of_pericenter": 312.5017,
        "meta_mean_anomaly": 211.6898,
        "meta_ephemeris_type": 0,
        "meta_classification_type": "U",
        "meta_norad_cat_id": 34790,
        "meta_element_set_no": 999,
        "meta_rev_at_epoch": 86522,
        "meta_bstar": 0.001032802,
        "meta_mean_motion_dot": 2.504e-05,
        "meta_mean_motion_ddot": 0,
        "tle_line1": "1 34790U 93036AAT 25343.17974146  .00002504  00000+0  10328-2 0  9996",
        "tle_line2": "2 34790  74.0552 250.1156 0100743 312.5017 211.6898 14.24610447865223"
      },
      "geometry": {
        "type": "Point",
        "coordinates": [
          -112.11071882606483,
          0.40898687101807435
        ]
      }
    },
    {
      "type": "Feature",
      "properties": {
        "norad_id": 34792,
        "name": "COSMOS 2251 DEB",
        "group": "cosmos-2251-debris",
        "lat": 50.71729279082077,
        "lon": -165.49514810469023,
        "alt_km": 708.7196548339634,
        "timestamp": "2025-12-10T11:33:53.779183+00:00",
        "meta_object_name": "COSMOS 2251 DEB",
        "meta_object_id": "1993-036AAV",
        "meta_epoch": "2025-12-09T12:22:02.661312",
        "meta_mean_motion": 14.55910931,
        "meta_eccentricity": 0.00125292,
        "meta_inclination": 74.0177,
        "meta_ra_of_asc_node": 175.8284,
        "meta_arg_of_pericenter": 269.6711,
        "meta_mean_anomaly": 119.962,
        "meta_ephemeris_type": 0,
        "meta_classification_type": "U",
        "meta_norad_cat_id": 34792,
        "meta_element_set_no": 999,
        "meta_rev_at_epoch": 87603,
        "meta_bstar": 0.0013597617,
        "meta_mean_motion_dot": 5.954e-05,
        "meta_mean_motion_ddot": 0,
        "tle_line1": "1 34792U 93036AAV 25343.51530858  .00005954  00000+0  13598-2 0  9998",
        "tle_line2": "2 34792  74.0177 175.8284 0012529 269.6711 119.9620 14.55910931876039"
      },
      "geometry": {
        "type": "Point",
        "coordinates": [
          -165.49514810469023,
          50.71729279082077
        ]
      }
    },
    {
      "type": "Feature",
      "properties": {
        "norad_id": 34793,
        "name": "COSMOS 2251 DEB",
        "group": "cosmos-2251-debris",
        "lat": -26.801236905014846,
        "lon": -113.79428698853908,
        "alt_km": 760.2098381449541,
        "timestamp": "2025-12-10T11:33:53.779193+00:00",
        "meta_object_name": "COSMOS 2251 DEB",
        "meta_object_id": "1993-036AAW",
        "meta_epoch": "2025-12-09T22:55:05.297952",
        "meta_mean_motion": 14.38636981,
        "meta_eccentricity": 0.0050179,
        "meta_inclination": 74.003,
        "meta_ra_of_asc_node": 255.5114,
        "meta_arg_of_pericenter": 50.3621,
        "meta_mean_anomaly": 74.303,
        "meta_ephemeris_type": 0,
        "meta_classification_type": "U",
        "meta_norad_cat_id": 34793,
        "meta_element_set_no": 999,
        "meta_rev_at_epoch": 87290,
        "meta_bstar": 0.00040471,
        "meta_mean_motion_dot": 1.232e-05,
        "meta_mean_motion_ddot": 0,
        "tle_line1": "1 34793U 93036AAW 25343.95492243  .00001232  00000+0  40471-3 0  9998",
        "tle_line2": "2 34793  74.0030 255.5114 0050179  50.3621  74.3030 14.38636981872906"
      },
      "geometry": {
        "type": "Point",
        "coordinates": [
          -113.79428698853908,
          -26.801236905014846
        ]
      }
    },
    {
      "type": "Feature",
      "properties": {
        "norad_id": 34796,
        "name": "COSMOS 2251 DEB",
        "group": "cosmos-2251-debris",
        "lat": -13.894523977454543,
        "lon": -143.48403397652794,
        "alt_km": 668.3213223338316,
        "timestamp": "2025-12-10T11:33:53.779203+00:00",
        "meta_object_name": "COSMOS 2251 DEB",
        "meta_object_id": "1993-036AAZ",
        "meta_epoch": "2025-12-10T02:22:55.925760",
        "meta_mean_motion": 14.48668134,
        "meta_eccentricity": 0.0100211,
        "meta_inclination": 74.0294,
        "meta_ra_of_asc_node": 221.2954,
        "meta_arg_of_pericenter": 323.9503,
        "meta_mean_anomaly": 186.6627,
        "meta_ephemeris_type": 0,
        "meta_classification_type": "U",
        "meta_norad_cat_id": 34796,
        "meta_element_set_no": 999,
        "meta_rev_at_epoch": 87989,
        "meta_bstar": 0.0008665,
        "meta_mean_motion_dot": 3.449e-05,
        "meta_mean_motion_ddot": 0,
        "tle_line1": "1 34796U 93036AAZ 25344.09925840  .00003449  00000+0  86650-3 0  9992",
        "tle_line2": "2 34796  74.0294 221.2954 0100211 323.9503 186.6627 14.48668134879894"
      },
      "geometry": {
        "type": "Point",
        "coordinates": [
          -143.48403397652794,
          -13.894523977454543
        ]
      }
    },
    {
      "type": "Feature",
      "properties": {
        "norad_id": 34797,
        "name": "COSMOS 2251 DEB",
        "group": "cosmos-2251-debris",
        "lat": 23.504066027955627,
        "lon": -82.98664247182751,
        "alt_km": 724.5139218293316,
        "timestamp": "2025-12-10T11:33:53.779213+00:00",
        "meta_object_name": "COSMOS 2251 DEB",
        "meta_object_id": "1993-036ABA",
        "meta_epoch": "2025-12-08T02:15:30.483648",
        "meta_mean_motion": 14.42690241,
        "meta_eccentricity": 0.00721111,
        "meta_inclination": 73.9779,
        "meta_ra_of_asc_node": 108.638,
        "meta_arg_of_pericenter": 222.8023,
        "meta_mean_anomaly": 136.7506,
        "meta_ephemeris_type": 0,
        "meta_classification_type": "U",
        "meta_norad_cat_id": 34797,
        "meta_element_set_no": 999,
        "meta_rev_at_epoch": 87348,
        "meta_bstar": 0.0033221371,
        "meta_mean_motion_dot": 0.00011397,
        "meta_mean_motion_ddot": 0,
        "tle_line1": "1 34797U 93036ABA 25342.09410282  .00011397  00000+0  33221-2 0  9996",
        "tle_line2": "2 34797  73.9779 108.6380 0072111 222.8023 136.7506 14.42690241873482"
      },
      "geometry": {
        "type": "Point",
        "coordinates": [
          -82.98664247182751,
          23.504066027955627
        ]
      }
    }
  ]
}